X,Y,OBJECTID,Objecttype,Type_velo,Ligging,Straatnaam,Huisnummer,Aanvulling,District,Postcode,Objectcode,Gebruik,Aantal_plaatsen
490805.435435433,6661741.33067299,225270,VELOSTATION,ENKELZIJDIG,VOETPAD,GODEFRIDUSKAAI,,thv Q-park,ANTWERPEN,2000,VE_0000129,IN_GEBRUIK,36
492111.727847502,6659889.1075359,225271,VELOSTATION,ENKELZIJDIG,PLEIN,Koningin Astridplein (2018),,to station 1,ANTWERPEN,2018,VE_0000002,IN_GEBRUIK,36
491186.935170642,6659990.42714611,225272,VELOSTATION,DUBBELZIJDIG,VOETPAD,Meir (2000),84,,ANTWERPEN,2000,VE_0000026,IN_GEBRUIK,21
490256.233411669,6660129.95496928,225273,VELOSTATION,ENKELZIJDIG,VOETPAD,Eiermarkt (2000),12,,ANTWERPEN,2000,VE_0000019,BUITEN_GEBRUIK,24
489878.99981999,6660068.07436155,225274,VELOSTATION,ENKELZIJDIG,PARKEERZONE,Groenkerkhofstraat (2000),2,thv Nationalestraat,ANTWERPEN,2000,VE_0000020,IN_GEBRUIK,27
488424.478613629,6658573.20164857,225275,VELOSTATION,ENKELZIJDIG,VOETGANGERSZONE,Cockerillkaai (2000),,,ANTWERPEN,2000,VE_0000035,IN_GEBRUIK,36
489387.629606106,6657587.47580403,225276,VELOSTATION,ENKELZIJDIG,VOETPAD,PALEISSTRAAT,147,,ANTWERPEN,2018,VE_0000094,IN_GEBRUIK,18
488707.473513431,6656639.99873835,225277,VELOSTATION,DUBBELZIJDIG,GROENZONE,Singel (2018),,tssn Singel/Brederodestraat,ANTWERPEN,2018,VE_0000012,IN_GEBRUIK,36
491101.594112087,6660217.92779491,225278,VELOSTATION,ENKELZIJDIG,VOETPAD,Lange Nieuwstraat (2000),105,,ANTWERPEN,2000,VE_0000027,IN_GEBRUIK,36
491849.272558918,6657783.7057887,225279,VELOSTATION,ENKELZIJDIG,VOETPAD,Belgiëlei (2018),99,,ANTWERPEN,2018,VE_0000044,IN_GEBRUIK,36
492308.146921382,6658513.04691694,225280,VELOSTATION,ENKELZIJDIG,VOETPAD,Mercatorstraat (2018),18,to 18,ANTWERPEN,2018,VE_0000006,IN_GEBRUIK,24
492896.522494308,6658558.20595364,225281,VELOSTATION,DUBBELZIJDIG,VOETGANGERSZONE,Van der Meydenstraat (2140),123,,BORGERHOUT,2140,VE_0000111,IN_GEBRUIK,30
493385.5200668,6661025.77840494,225282,VELOSTATION,ENKELZIJDIG,VOETPAD,Lange Stuivenbergstraat (2060),86-88,to 86-88,ANTWERPEN,2060,VE_0000101,IN_GEBRUIK,36
494172.324786688,6661653.47372436,225283,VELOSTATION,ENKELZIJDIG,PARKEERZONE,Schijnpoortweg (2060),27-29,,ANTWERPEN,2060,VE_0000120,IN_GEBRUIK,24
487434.510201941,6662329.69712844,225284,VELOSTATION,ENKELZIJDIG,VOETPAD,August Vermeylenlaan (2050),7,to 7,ANTWERPEN,2050,VE_0000144,IN_GEBRUIK,36
487419.28517315,6661717.2366441,225285,VELOSTATION,ENKELZIJDIG,VOETPAD,August Vermeylenlaan (2050),,charles de costerlaan,ANTWERPEN,2050,VE_0000145,IN_GEBRUIK,24
488200.918008866,6660015.59989291,225286,VELOSTATION,ENKELZIJDIG,GROENZONE,Beatrijslaan (2050),42,,ANTWERPEN,2050,VE_0000153,IN_GEBRUIK,36
487089.782181539,6660309.17143789,225287,VELOSTATION,DUBBELZIJDIG,VOETPAD,Blancefloerlaan (2050),163-165,,ANTWERPEN,2050,VE_0000152,IN_GEBRUIK,36
488295.905894173,6660407.52390628,225288,VELOSTATION,ENKELZIJDIG,VOETPAD,Blancefloerlaan (2050),,to frederick van eedenplein,ANTWERPEN,2050,VE_0000149,IN_GEBRUIK,36
487861.750194778,6662680.60571419,225289,VELOSTATION,ENKELZIJDIG,VOETPAD,Esmoreitlaan (2050),13,thv lodewijk van veltheimlaan,ANTWERPEN,2050,VE_0000142,IN_GEBRUIK,36
488272.632175083,6660848.82846992,225290,VELOSTATION,ENKELZIJDIG,VOETPAD,Frederik van Eedenplein (2050),4,to 4,ANTWERPEN,2050,VE_0000148,IN_GEBRUIK,36
488231.893039852,6662265.66524849,225291,VELOSTATION,ENKELZIJDIG,VOETPAD,Gloriantlaan (2050),31,,ANTWERPEN,2050,VE_0000143,IN_GEBRUIK,24
488346.301704234,6663000.68857156,225292,VELOSTATION,ENKELZIJDIG,VOETPAD,Gloriantlaan (2050),,thv kastanjedreef,ANTWERPEN,2050,VE_0000141,IN_GEBRUIK,36
488873.154716521,6662312.11539026,225293,VELOSTATION,ENKELZIJDIG,VOETPAD,Thonetlaan (2050),,to jachthaven,ANTWERPEN,2050,VE_0000140,IN_GEBRUIK,36
487343.509317809,6661014.87332252,225294,VELOSTATION,ENKELZIJDIG,VOETPAD,Halewijnlaan (2050),88,,ANTWERPEN,2050,VE_0000147,IN_GEBRUIK,24
488233.35085415,6661666.60359916,225295,VELOSTATION,ENKELZIJDIG,VOETPAD,Reinaartlaan (2050),,thv gloriantlaan,ANTWERPEN,2050,VE_0000146,IN_GEBRUIK,33
487770.419407984,6660303.69991877,225296,VELOSTATION,ENKELZIJDIG,VOETPAD,Waterhoenlaan (2050),12,,ANTWERPEN,2050,VE_0000150,IN_GEBRUIK,24
490203.958603953,6662318.36527544,225297,VELOSTATION,DUBBELZIJDIG,VOETPAD,Amsterdamstraat (2000),,thv rijnkaai,ANTWERPEN,2000,VE_0000138,IN_GEBRUIK,24
491181.227822763,6662269.99893326,225298,VELOSTATION,ENKELZIJDIG,VOETPAD,Londenstraat (2000),53,,ANTWERPEN,2000,VE_0000139,IN_GEBRUIK,21
490438.008338939,6662032.19128686,225299,VELOSTATION,DUBBELZIJDIG,VOETPAD,Sint-Laureiskaai (2000),,,ANTWERPEN,2000,VE_0000137,IN_GEBRUIK,36
489858.377067548,6660581.67279194,225300,VELOSTATION,ENKELZIJDIG,VOETPAD,Wisselstraat (2000),12,to 12,ANTWERPEN,2000,VE_0000060,IN_GEBRUIK,36
491293.441736722,6661769.19626176,225301,VELOSTATION,DUBBELZIJDIG,VOETPAD,Italiëlei (2000),4,thv FOD financien,ANTWERPEN,2000,VE_0000127,IN_GEBRUIK,30
490438.075191559,6656163.67787705,225302,VELOSTATION,ENKELZIJDIG,VOETPAD,Jan Van Rijswijcklaan (2018),86,,ANTWERPEN,2018,VE_0000014,IN_GEBRUIK,36
490134.319228741,6660969.73799603,225303,VELOSTATION,ENKELZIJDIG,VOETPAD,Sint-Paulusstraat (2000),42,thv lange koepoortstraat,ANTWERPEN,2000,VE_0000050,IN_GEBRUIK,21
490834.888595619,6658963.88279292,225304,VELOSTATION,ENKELZIJDIG,VOETPAD,Oudevaartplaats (2000),,thv frankrijklei,ANTWERPEN,2000,VE_0000077,IN_GEBRUIK,36
489022.846742421,6657806.20172823,225305,VELOSTATION,ENKELZIJDIG,VOETPAD,Amerikalei (2000),162,graaf van hoorplein thv graaf van hoornstraat,ANTWERPEN,2000,VE_0000080,IN_GEBRUIK,36
489396.22951888,6656188.16695616,225306,VELOSTATION,ENKELZIJDIG,VOETPAD,Desguinlei (2018),246,to 246 oh plein,ANTWERPEN,2018,VE_0000040,IN_GEBRUIK,36
493150.204154597,6660729.25406212,225307,VELOSTATION,ENKELZIJDIG,PARKEERZONE,Duinstraat (2060),83-87,,ANTWERPEN,2060,VE_0000102,IN_GEBRUIK,36
491919.383243573,6661729.81506254,225308,VELOSTATION,DUBBELZIJDIG,VOETPAD,Lange Dijkstraat (2060),46,thv van aerdtstraat,ANTWERPEN,2060,VE_0000126,IN_GEBRUIK,36
489577.271153431,6659256.11006112,225309,VELOSTATION,ENKELZIJDIG,PLEIN,Nationalestraat (2000),111-113,to 111-113 thv lange vlierstraat,ANTWERPEN,2000,VE_0000076,IN_GEBRUIK,24
491494.734526307,6657385.61430814,225310,VELOSTATION,ENKELZIJDIG,VOETPAD,Belgiëlei (2018),157,thv Greterystraat,ANTWERPEN,2018,VE_0000043,IN_GEBRUIK,30
493586.984657264,6656924.58644237,225311,VELOSTATION,ENKELZIJDIG,PLEIN,Burgemeester E. Ryckaertsplein (2600),,NMBS station Berchem,BERCHEM,2600,VE_0000008,IN_GEBRUIK,30
493897.41073281,6657360.41253478,225312,VELOSTATION,DUBBELZIJDIG,VOETPAD,Uitbreidingstraat (2600),578,,BERCHEM,2600,VE_0000112,IN_GEBRUIK,36
489417.083627219,6658555.09993595,225313,VELOSTATION,ENKELZIJDIG,PARKEERZONE,Karel Rogierstraat (2000),2-4,,ANTWERPEN,2000,VE_0000016,IN_GEBRUIK,27
494479.844304988,6658750.96564376,225314,VELOSTATION,ENKELZIJDIG,PARKEERZONE,Fonteinstraat (2140),70,to 70,BORGERHOUT,2140,VE_0000069,IN_GEBRUIK,36
487421.83555233,6660367.13792685,225315,VELOSTATION,DUBBELZIJDIG,GROENZONE,Blancefloerlaan (2050),48a,to 48a middenberm thv halewijnlaan,ANTWERPEN,2050,VE_0000151,IN_GEBRUIK,36
491780.051963102,6659935.11830223,225316,VELOSTATION,ENKELZIJDIG,VOETPAD,De Keyserlei (2018),,verplaatst nr Anneessenstraat,ANTWERPEN,2018,VE_0000024,IN_GEBRUIK,36
491543.206434534,6656569.75190153,225317,VELOSTATION,ENKELZIJDIG,VOETPAD,Grotesteenweg (2600),,thv Boomgaardstraat,BERCHEM,2600,VE_0000046,IN_GEBRUIK,36
492434.565067177,6657029.14394616,225318,VELOSTATION,DUBBELZIJDIG,VOETPAD,Boomgaardstraat (2018),,thv militair hospitaal,ANTWERPEN,2018,VE_0000047,IN_GEBRUIK,36
492644.25436456,6659492.63833341,225319,VELOSTATION,DUBBELZIJDIG,PLEIN,Provinciestraat (2018),81,to 81,ANTWERPEN,2018,VE_0000119,IN_GEBRUIK,24
492411.127415481,6661379.5694261,225320,VELOSTATION,ENKELZIJDIG,VOETPAD,Van Kerckhovenstraat (2060),16,to 16 thv st-norbertusstraat,ANTWERPEN,2060,VE_0000125,IN_GEBRUIK,36
490497.179273065,6660813.93081255,225321,VELOSTATION,DUBBELZIJDIG,PLEIN,Mutsaardstraat (2000),,mutsaardplein thv blindestraat,ANTWERPEN,2000,VE_0000051,IN_GEBRUIK,36
491118.668344785,6658661.74762267,225322,VELOSTATION,ENKELZIJDIG,PLEIN,Fransenplaats (2018),,thv Moonstraat,ANTWERPEN,2018,VE_0000041,IN_GEBRUIK,27
492930.169528415,6656199.53523415,225323,VELOSTATION,ENKELZIJDIG,VOETPAD,Vredestraat (2600),99,thv zonnebloemstraat,BERCHEM,2600,VE_0000055,IN_GEBRUIK,33
492229.840612173,6659062.25604595,225324,VELOSTATION,DUBBELZIJDIG,PLEIN,Kievitplein (2018),,,ANTWERPEN,2018,VE_0000003,IN_GEBRUIK,30
493158.670981038,6657969.78969085,225325,VELOSTATION,ENKELZIJDIG,VOETPAD,Dageraadplaats (2018),,,ANTWERPEN,2018,VE_0000110,IN_GEBRUIK,36
492637.189832965,6656381.52905323,225326,VELOSTATION,ENKELZIJDIG,PARKEERZONE,Statiestraat (2600),53,thv victor jacobslei,BERCHEM,2600,VE_0000061,IN_GEBRUIK,36
491950.150933249,6655929.34928069,225327,VELOSTATION,ENKELZIJDIG,VOETPAD,Grotesteenweg (2600),,thv Driekoningenstraat,BERCHEM,2600,VE_0000021,IN_GEBRUIK,24
493214.495834324,6656711.9381918,225328,VELOSTATION,ENKELZIJDIG,VOETPAD,Statiestraat (2600),,thv Posthoflei,BERCHEM,2600,VE_0000022,IN_GEBRUIK,33
493517.913439907,6659637.29651345,225329,VELOSTATION,ENKELZIJDIG,PLEIN,Laar (2140),,thv Kerkplein,BORGERHOUT,2140,VE_0000030,IN_GEBRUIK,24
493599.266219452,6658696.56638423,225330,VELOSTATION,ENKELZIJDIG,PARKEERZONE,Betogingstraat (2140),1,to 1,BORGERHOUT,2140,VE_0000039,IN_GEBRUIK,36
494270.692102208,6659592.64560856,225331,VELOSTATION,DUBBELZIJDIG,PLEIN,Krugerplein (2140),,thv delarayestraat                 ,BORGERHOUT,2140,VE_0000108,IN_GEBRUIK,24
492033.939551061,6659836.48912885,225332,VELOSTATION,ENKELZIJDIG,VOETPAD,De Keyserlei (2018),57,,ANTWERPEN,2018,VE_0000004,IN_GEBRUIK,21
490776.341850876,6660568.18282779,225333,VELOSTATION,ENKELZIJDIG,PARKEERZONE,Keizerstraat (2000),56-58,to 56-58,ANTWERPEN,2000,VE_0000028,IN_GEBRUIK,24
492119.04579429,6657428.72827907,225334,VELOSTATION,ENKELZIJDIG,VOETPAD,Lamorinièrestraat (2018),148,,ANTWERPEN,2018,VE_0000130,IN_GEBRUIK,18
491305.147499777,6657683.55252735,225335,VELOSTATION,ENKELZIJDIG,VOETPAD,Sint-Vincentiusstraat (2018),61,to 61,ANTWERPEN,2018,VE_0000093,IN_GEBRUIK,30
490041.434706735,6656464.39783781,225336,VELOSTATION,ENKELZIJDIG,PARKEERZONE,Van Schoonbekestraat (2018),,thv markgravelei,ANTWERPEN,2018,VE_0000089,IN_GEBRUIK,21
489671.492209695,6657773.44583083,225337,VELOSTATION,ENKELZIJDIG,VOETPAD,Boudewijnsstraat (2018),19-21,to 19-21,ANTWERPEN,2018,VE_0000085,IN_GEBRUIK,24
491283.752135895,6659123.02450108,225338,VELOSTATION,ENKELZIJDIG,PARKEERZONE,Rubenslei (2018),,thv ingang park,ANTWERPEN,2018,VE_0000096,IN_GEBRUIK,24
489111.284808997,6659681.25622507,225339,VELOSTATION,ENKELZIJDIG,PARKEERZONE,Plantinkaai (2000),27,to 27,ANTWERPEN,2000,VE_0000065,IN_GEBRUIK,30
489939.000046406,6660099.95945295,225340,VELOSTATION,ENKELZIJDIG,PLEIN,Groenplaats (2000),7,,ANTWERPEN,2000,VE_0000017,IN_GEBRUIK,18
491238.35257568,6660634.70922509,225341,VELOSTATION,ENKELZIJDIG,PARKEERZONE,Pieter van Hobokenstraat (2000),19-21,,ANTWERPEN,2000,VE_0000054,IN_GEBRUIK,21
492293.152704416,6661590.78375604,225342,VELOSTATION,ENKELZIJDIG,VOETPAD,Trapstraat (2060),10,,ANTWERPEN,2060,VE_0000118,IN_GEBRUIK,21
493222.888921153,6661607.22398499,225343,VELOSTATION,ENKELZIJDIG,PARKEERZONE,Stuivenbergplein (2060),36-1,to 36-1,ANTWERPEN,2060,VE_0000121,IN_GEBRUIK,30
492196.881891494,6655434.48372218,225344,VELOSTATION,DUBBELZIJDIG,GROENZONE,Binnensingel (2600),,kp Grote Stwg,BERCHEM,2600,VE_0000103,IN_GEBRUIK,36
490694.020434792,6655530.87543297,225345,VELOSTATION,ENKELZIJDIG,MIDDENBERM,Karel Oomsstraat (2018),69,to 69 od middenberm thv binnensingel,ANTWERPEN,2018,VE_0000031,IN_GEBRUIK,36
491168.217009909,6655638.84392418,225346,VELOSTATION,ENKELZIJDIG,PARKEERZONE,De Wittestraat (2600),101,"to 101, thv generaal lemanstraat",BERCHEM,2600,VE_0000131,IN_GEBRUIK,21
491760.400470878,6655882.05463495,225347,VELOSTATION,ENKELZIJDIG,PLEIN,Frans Van Hombeeckplein (2600),10,to 10,BERCHEM,2600,VE_0000100,IN_GEBRUIK,33
490952.099109469,6656232.42709042,225348,VELOSTATION,ENKELZIJDIG,GROENZONE,Generaal Lemanstraat (2018),6,to 6 thv karel oomsstraat,ANTWERPEN,2018,VE_0000099,IN_GEBRUIK,24
488772.065952463,6656477.95445908,225349,VELOSTATION,DUBBELZIJDIG,GROENZONE,Desguinlei (2018),,Kielsbroek thv Montignystraat,ANTWERPEN,2018,VE_0000010,IN_GEBRUIK,36
491897.448403426,6656725.81187098,225350,VELOSTATION,ENKELZIJDIG,PARKEERZONE,Boomgaardstraat (2018),31,,ANTWERPEN,2018,VE_0000098,BUITEN_GEBRUIK,21
489161.287481103,6656888.88798166,225351,VELOSTATION,ENKELZIJDIG,VOETPAD,Lange Elzenstraat (2018),56,,ANTWERPEN,2018,VE_0000087,IN_GEBRUIK,21
493591.703018123,6656921.08411289,225352,VELOSTATION,ENKELZIJDIG,PLEIN,Burgemeester E. Ryckaertsplein (2600),,NMBS station Berchem,BERCHEM,2600,VE_0000007,IN_GEBRUIK,36
493819.467384787,6658363.03493922,225353,VELOSTATION,DUBBELZIJDIG,RIJWEG,Vandenpeereboomstraat (2140),106,,BORGERHOUT,2140,VE_0000009,IN_GEBRUIK,30
490049.733003645,6656955.24452805,225354,VELOSTATION,ENKELZIJDIG,PARKEERZONE,Van Trierstraat (2018),2,to 2 thv haantjeslei,ANTWERPEN,2018,VE_0000088,IN_GEBRUIK,21
490479.254772863,6657069.69155086,225355,VELOSTATION,ENKELZIJDIG,VOETPAD,Lange Lozanastraat (2018),,,ANTWERPEN,2018,VE_0000029,IN_GEBRUIK,18
491150.016683008,6657151.96812649,225356,VELOSTATION,ENKELZIJDIG,PARKEERZONE,Mechelsesteenweg (2018),,thv ingang harmoniepark,ANTWERPEN,2018,VE_0000042,IN_GEBRUIK,21
492979.062583613,6657312.35889861,225357,VELOSTATION,ENKELZIJDIG,GROENZONE,Stanleystraat (2018),1,to 1 thv lange leemstraat,ANTWERPEN,2018,VE_0000097,IN_GEBRUIK,21
488939.475611648,6657354.6703194,225358,VELOSTATION,ENKELZIJDIG,VOETPAD,Troonplaats (2018),,thv montignystraat,ANTWERPEN,2018,VE_0000086,IN_GEBRUIK,27
490985.756213525,6657557.73946281,225359,VELOSTATION,ENKELZIJDIG,VOETPAD,Mechelsesteenweg (2018),180,,ANTWERPEN,2018,VE_0000092,IN_GEBRUIK,21
490337.029209235,6657561.02907939,225360,VELOSTATION,ENKELZIJDIG,VOETPAD,Vinkenstraat (2018),7,to 7,ANTWERPEN,2018,VE_0000090,IN_GEBRUIK,18
488431.047075315,6657578.54393061,225361,VELOSTATION,ENKELZIJDIG,PLEIN,Bolivarplaats (2000),,thv gerechtsgebouw,ANTWERPEN,2000,VE_0000081,IN_GEBRUIK,27
493387.725796013,6657752.84936172,225362,VELOSTATION,ENKELZIJDIG,VOETPAD,Draakplaats (2018),,,BERCHEM,2600,VE_0000106,IN_GEBRUIK,33
489634.340161688,6658122.75721484,225363,VELOSTATION,ENKELZIJDIG,VOETPAD,Amerikalei (2000),82,,ANTWERPEN,2000,VE_0000083,IN_GEBRUIK,27
489188.259937332,6658143.10428163,225364,VELOSTATION,ENKELZIJDIG,VOETPAD,Beeldhouwersstraat (2000),,thv Admiraal De Boisotstraat,ANTWERPEN,2000,VE_0000015,BUITEN_GEBRUIK,24
492502.964361444,6658188.61124142,225365,VELOSTATION,ENKELZIJDIG,PARKEERZONE,Provinciestraat (2018),,thv mercatorstraat,ANTWERPEN,2018,VE_0000104,IN_GEBRUIK,18
488390.988395742,6658262.57856607,225366,VELOSTATION,DUBBELZIJDIG,VOETPAD,Waalsekaai (2000),46,thv Fotografie museum,ANTWERPEN,2000,VE_0000082,IN_GEBRUIK,24
490731.633458948,6658309.53479695,225367,VELOSTATION,ENKELZIJDIG,VOETPAD,Mechelsesteenweg (2018),66,,ANTWERPEN,2018,VE_0000091,IN_GEBRUIK,18
493307.374851863,6658342.07504882,225368,VELOSTATION,ENKELZIJDIG,VOETPAD,Lange Van Ruusbroecstraat (2018),114,,ANTWERPEN,2018,VE_0000105,IN_GEBRUIK,33
490132.242588627,6658380.71271157,225369,VELOSTATION,ENKELZIJDIG,VOETPAD,Britselei (2000),86-94,,ANTWERPEN,2000,VE_0000078,IN_GEBRUIK,27
488791.287930252,6658493.8957695,225370,VELOSTATION,ENKELZIJDIG,PARKEERZONE,Vlaamsekaai (2000),35,,ANTWERPEN,2000,VE_0000075,BUITEN_GEBRUIK,24
491739.414327424,6658533.64727361,225371,VELOSTATION,ENKELZIJDIG,MIDDENBERM,Van Eycklei (2018),48,to 48,ANTWERPEN,2018,VE_0000116,IN_GEBRUIK,18
488559.913338093,6658382.95163888,225372,VELOSTATION,DUBBELZIJDIG,VOETGANGERSZONE,Waalsekaai (2000),53,,ANTWERPEN,2000,VE_0000034,BUITEN_GEBRUIK,36
490615.796275083,6658712.59739554,225373,VELOSTATION,ENKELZIJDIG,VOETPAD,Britselei (2000),4,thv mechelsesteenweg,ANTWERPEN,2000,VE_0000079,IN_GEBRUIK,24
494011.995856784,6658831.7626615,225374,VELOSTATION,ENKELZIJDIG,PLEIN,Maarschalk Montgomeryplein (2140),4,to 4 oh plein,BORGERHOUT,2140,VE_0000132,IN_GEBRUIK,18
489683.503309401,6658860.13590613,225375,VELOSTATION,ENKELZIJDIG,PARKEERZONE,Kronenburgstraat (2000),82,to 82,ANTWERPEN,2000,VE_0000072,IN_GEBRUIK,27
489139.651413247,6658931.14410812,225376,VELOSTATION,ENKELZIJDIG,VOETPAD,Kloosterstraat (2000),164,to 164 thv kronenburgstraat,ANTWERPEN,2000,VE_0000074,IN_GEBRUIK,30
492211.351048982,6659058.08006185,225377,VELOSTATION,DUBBELZIJDIG,PLEIN,Kievitplein (2018),,,ANTWERPEN,2018,VE_0000005,IN_GEBRUIK,36
490358.402586862,6659139.84814304,225378,VELOSTATION,ENKELZIJDIG,MIDDENBERM,Lange Gasthuisstraat (2000),3,to 3,ANTWERPEN,2000,VE_0000084,IN_GEBRUIK,24
493579.32159487,6659122.3980039,225379,VELOSTATION,DUBBELZIJDIG,PLEIN,Moorkensplein (2140),,,BORGERHOUT,2140,VE_0000107,IN_GEBRUIK,36
491149.416171338,6659472.39260592,225380,VELOSTATION,ENKELZIJDIG,PARKEERZONE,Tabakvest (2000),42,,ANTWERPEN,2000,VE_0000037,IN_GEBRUIK,30
491609.469119357,6659263.23464148,225381,VELOSTATION,ENKELZIJDIG,PARKEERZONE,Quinten Matsijslei (2018),12,,ANTWERPEN,2018,VE_0000095,IN_GEBRUIK,30
489397.236773879,6659385.11554409,225382,VELOSTATION,ENKELZIJDIG,PARKEERZONE,Sint-Andriesplaats (2000),23,to 23 oh plein,ANTWERPEN,2000,VE_0000070,IN_GEBRUIK,30
488971.862939091,6659383.64596766,225383,VELOSTATION,ENKELZIJDIG,PARKEERZONE,Sint-Michielskaai (2000),21,to 21,ANTWERPEN,2000,VE_0000071,IN_GEBRUIK,30
490147.413902093,6659550.27317918,225384,VELOSTATION,ENKELZIJDIG,PARKEERZONE,Oudaan (2000),14,,ANTWERPEN,2000,VE_0000067,IN_GEBRUIK,36
490475.534211719,6659666.22320176,225385,VELOSTATION,ENKELZIJDIG,PARKEERZONE,Schuttershofstraat (2000),2,,ANTWERPEN,2000,VE_0000036,IN_GEBRUIK,21
490794.400056557,6659783.52837837,225386,VELOSTATION,ENKELZIJDIG,VOETPAD,Wapper (2000),,thv Jodenstraat,ANTWERPEN,2000,VE_0000023,IN_GEBRUIK,36
489721.321526995,6659791.4833871,225387,VELOSTATION,ENKELZIJDIG,PARKEERZONE,Drukkerijstraat (2000),18,,ANTWERPEN,2000,VE_0000066,IN_GEBRUIK,24
492102.703052079,6659889.69653796,225388,VELOSTATION,ENKELZIJDIG,PLEIN,Koningin Astridplein (2018),31-32,,ANTWERPEN,2018,VE_0000001,IN_GEBRUIK,33
490492.437788193,6659979.52928214,225389,VELOSTATION,ENKELZIJDIG,VOETPAD,Meir (2000),18,,ANTWERPEN,2000,VE_0000018,IN_GEBRUIK,36
491373.783358915,6659991.91970817,225390,VELOSTATION,DUBBELZIJDIG,VOETPAD,Leysstraat (2000), 27,,ANTWERPEN,2000,VE_0000025,IN_GEBRUIK,36
493207.235655583,6660053.47961178,225391,VELOSTATION,ENKELZIJDIG,VOETPAD,Kerkstraat (2060),58,,ANTWERPEN,2060,VE_0000109,IN_GEBRUIK,21
494106.593660962,6660059.4809912,225392,VELOSTATION,ENKELZIJDIG,VOETPAD,Vercammenstraat (2140),3,thv helmstraat,BORGERHOUT,2140,VE_0000113,IN_GEBRUIK,18
489238.00547243,6660140.39714136,225393,VELOSTATION,DUBBELZIJDIG,PLEIN,Plantinkaai (2000),,to st-jansvliet zuiderterras,ANTWERPEN,2000,VE_0000064,IN_GEBRUIK,36
491847.493894072,6660671.58382513,225394,VELOSTATION,ENKELZIJDIG,PLEIN,Osystraat (2060),,verplaatst van Italielei naar  Osystraat,ANTWERPEN,2000,VE_0000011,IN_GEBRUIK,36
489444.440363234,6660492.79400742,225395,VELOSTATION,ENKELZIJDIG,GROENZONE,Ernest Van Dijckkaai (2000),11-12,to 11-12 zuiderterras,ANTWERPEN,2000,VE_0000059,IN_GEBRUIK,36
490103.912906285,6660584.49354816,225396,VELOSTATION,ENKELZIJDIG,VOETPAD,Wolstraat (2000),2,thv korte koepoortstraat,ANTWERPEN,2000,VE_0000057,IN_GEBRUIK,18
492117.001473213,6660602.80535311,225397,VELOSTATION,ENKELZIJDIG,PLEIN,De Coninckplein (2060),26,to 26,ANTWERPEN,2060,VE_0000032,IN_GEBRUIK,27
493565.129775294,6660668.66148669,225398,VELOSTATION,ENKELZIJDIG,PARKEERZONE,Pesthofstraat (2060),7,to 7,ANTWERPEN,2060,VE_0000114,IN_GEBRUIK,21
490314.881661078,6660692.53028925,225399,VELOSTATION,ENKELZIJDIG,PARKEERZONE,Minderbroedersrui (2000),46,,ANTWERPEN,2000,VE_0000056,IN_GEBRUIK,30
492511.32977893,6660797.01065274,225400,VELOSTATION,ENKELZIJDIG,VOETPAD,Sint-Elisabethstraat (2060),63,thv greinstraat,ANTWERPEN,2060,VE_0000115,IN_GEBRUIK,21
489703.017693389,6661074.911513,225401,VELOSTATION,ENKELZIJDIG,PARKEERZONE,Jordaenskaai (2000),,to saucierstraat,ANTWERPEN,2000,VE_0000058,IN_GEBRUIK,30
491239.450851636,6661148.36726215,225402,VELOSTATION,ENKELZIJDIG,PARKEERZONE,Paardenmarkt (2000),90,thv kleine kauwenberg,ANTWERPEN,2000,VE_0000053,IN_GEBRUIK,21
493878.770286914,6661137.64299562,225403,VELOSTATION,ENKELZIJDIG,VOETPAD,Pothoekstraat (2060),122,to 122,ANTWERPEN,2060,VE_0000122,IN_GEBRUIK,21
491853.239580069,6661277.17954842,225404,VELOSTATION,ENKELZIJDIG,PLEIN,Sint-Jansplein (2060),17,to 17,ANTWERPEN,2060,VE_0000117,IN_GEBRUIK,30
491096.370534969,6661749.13766467,225405,VELOSTATION,DUBBELZIJDIG,VOETPAD,Entrepotkaai (2000),15,verplaatst van italielei nr Entrepotkaai,ANTWERPEN,2000,VE_0000052,IN_GEBRUIK,36
489900.539125639,6661341.81611264,225406,VELOSTATION,ENKELZIJDIG,PARKEERZONE,Sint-Pietersvliet (2000),,thv tolhuis,ANTWERPEN,2000,VE_0000049,IN_GEBRUIK,27
490877.399943704,6661403.81960472,225407,VELOSTATION,ENKELZIJDIG,VOETPAD,Hessenplein (2000),2,,ANTWERPEN,2000,VE_0000033,IN_GEBRUIK,21
490051.689015268,6661715.08853981,225408,VELOSTATION,DUBBELZIJDIG,VOETPAD,Sint-Aldegondiskaai (2000),2,thv Bonapartedok,ANTWERPEN,2000,VE_0000135,IN_GEBRUIK,36
490418.463651587,6661524.59707623,225409,VELOSTATION,DUBBELZIJDIG,VOETPAD,Oudeleeuwenrui (2000),2,,ANTWERPEN,2000,VE_0000045,IN_GEBRUIK,36
490442.4666976,6661746.39831659,225410,VELOSTATION,DUBBELZIJDIG,PLEIN,Godefriduskaai (2000),,thv oostendekaai,ANTWERPEN,2000,VE_0000134,IN_GEBRUIK,36
492558.692111387,6661919.56786797,225411,VELOSTATION,ENKELZIJDIG,PARKEERZONE,Viséstraat (2060),14,,ANTWERPEN,2060,VE_0000123,IN_GEBRUIK,18
491072.196777356,6661987.07310018,225412,VELOSTATION,ENKELZIJDIG,VOETPAD,Entrepotplaats (2000),1,,ANTWERPEN,2000,VE_0000133,IN_GEBRUIK,24
491967.429569178,6662065.96080116,225413,VELOSTATION,ENKELZIJDIG,GROENZONE,Ellermanstraat (2060),74,to 74,ANTWERPEN,2060,VE_0000124,IN_GEBRUIK,30
494671.552754076,6659329.70319619,225414,VELOSTATION,DUBBELZIJDIG,VOETPAD,Turnhoutsebaan (2140),366,thv stenenbrug                 ,BORGERHOUT,2140,VE_0000068,IN_GEBRUIK,30
492810.75217111,6662395.99451795,225415,VELOSTATION,DUBBELZIJDIG,VOETPAD,Lange Lobroekstraat (2060),220,to,ANTWERPEN,2060,VE_0000062,IN_GEBRUIK,24
493331.56629587,6662067.35778338,225416,VELOSTATION,ENKELZIJDIG,VOETPAD,Lange Lobroekstraat (2060),93,to,ANTWERPEN,2060,VE_0000063,IN_GEBRUIK,36
493440.928831664,6660320.23739798,225417,VELOSTATION,ENKELZIJDIG,VOETPAD,Pastorijstraat (2060),28,to,ANTWERPEN,2060,VE_0000038,IN_GEBRUIK,21
490210.924603181,6658936.64067636,225418,VELOSTATION,DUBBELZIJDIG,VOETPAD,Maarschalk Gérardstraat (2000),25a,,ANTWERPEN,2000,VE_0000073,IN_GEBRUIK,36
490059.567867945,6655644.13941874,225419,VELOSTATION,DUBBELZIJDIG,GROENZONE,Jan Van Rijswijcklaan (2018),,thv de Singel,ANTWERPEN,2018,VE_0000013,IN_GEBRUIK,36
492028.980283603,6659828.22186591,225420,VELOSTATION,ENKELZIJDIG,VOETPAD,De Keyserlei (2018),61,,ANTWERPEN,2018,VE_0000048,IN_GEBRUIK,33
492153.707823497,6662389.63419356,225421,VELOSTATION,ENKELZIJDIG,VOETGANGERSZONE,Hardenvoort (2060),,,ANTWERPEN,2060,VE_0000136,IN_GEBRUIK,33
494693.542697142,6660129.38356599,225422,VELOSTATION,ENKELZIJDIG,VOETPAD,Terloplein (2140),64,to 64 pleintje,BORGERHOUT,2140,VE_0000154,IN_GEBRUIK,33
494886.993018124,6659625.03938843,225423,VELOSTATION,DUBBELZIJDIG,VOETGANGERSZONE,Statielei (2140),27,to 27 naast spoorwegbrug,BORGERHOUT,2140,VE_0000155,IN_GEBRUIK,30
492200.317944493,6655427.40449299,225424,VELOSTATION,DUBBELZIJDIG,MIDDENBERM,Binnensingel (2600),,aan binnensingel,BERCHEM,2600,VE_0000157,IN_GEBRUIK,36
489622.591313198,6657092.29205256,225425,VELOSTATION,DUBBELZIJDIG,PLEIN,Zuidervelodroom (2018),55,,ANTWERPEN,2018,VE_0000158,IN_GEBRUIK,36
489730.210442246,6657732.03986467,225426,VELOSTATION,DUBBELZIJDIG,VOETPAD,Boudewijnssteeg (2018),1, fase 3,ANTWERPEN,2018,VE_0000159,IN_GEBRUIK,30
488570.560059777,6657341.69339271,225427,VELOSTATION,DUBBELZIJDIG,GROENZONE,Brusselstraat (2018),5,to 5,ANTWERPEN,2018,VE_0000160,IN_GEBRUIK,36
491920.50852419,6667904.37683738,225428,VELOSTATION,DUBBELZIJDIG,VOETPAD,Havanastraat (2030),1,,ANTWERPEN,2030,VE_0000201,IN_GEBRUIK,36
492388.510999602,6666270.46037512,225429,VELOSTATION,DUBBELZIJDIG,GROENZONE,Columbiastraat (2030),,thv Venezuelastraat,ANTWERPEN,2030,VE_0000203,IN_GEBRUIK,36
492130.805226579,6665633.97812072,225430,VELOSTATION,DUBBELZIJDIG,PLEIN,Noorderlaan (2030),104B-104C,,ANTWERPEN,2030,VE_0000204,IN_GEBRUIK,36
491414.043342813,6664716.91671789,225431,VELOSTATION,DUBBELZIJDIG,GROENZONE,Groenendaallaan (2030),397A,,ANTWERPEN,2030,VE_0000205,IN_GEBRUIK,36
492382.089845763,6664637.94910695,225432,VELOSTATION,ENKELZIJDIG,PLEIN,Bermstraat (2030),,hoek Groenendaallaan,ANTWERPEN,2030,VE_0000206,IN_GEBRUIK,36
496892.88944185,6666272.29732813,225433,VELOSTATION,DUBBELZIJDIG,GROENZONE,Van Praetlei (2170),252,to 252,MERKSEM,2170,VE_0000207,IN_GEBRUIK,36
495860.491700738,6666443.06469718,225434,VELOSTATION,ENKELZIJDIG,VOETPAD,Ringlaan (2170),74,to 74,MERKSEM,2170,VE_0000208,IN_GEBRUIK,36
495053.931728723,6666788.10819778,225435,VELOSTATION,DUBBELZIJDIG,VOETPAD,Korte Bremstraat (2170),2,to Laaglandlaan,MERKSEM,2170,VE_0000209,IN_GEBRUIK,36
493787.927416881,6666574.45828556,225436,VELOSTATION,DUBBELZIJDIG,GROENZONE,Maantjessteenweg (2170),175,,MERKSEM,2170,VE_0000210,IN_GEBRUIK,36
493954.710573315,6665856.02550322,225437,VELOSTATION,DUBBELZIJDIG,GROENZONE,Rodeloopstraat (2170),67,to 67,MERKSEM,2170,VE_0000211,IN_GEBRUIK,36
494507.674729886,6665795.82810092,225438,VELOSTATION,DUBBELZIJDIG,GROENZONE,Rodeloopstraat (2170),1-3,to 1-3,MERKSEM,2170,VE_0000212,IN_GEBRUIK,36
495156.023983805,6665900.17867401,225439,VELOSTATION,ENKELZIJDIG,PLEIN,Kroonplein (2170),28,to 28,MERKSEM,2170,VE_0000213,IN_GEBRUIK,36
493485.083851221,6665275.33225919,225440,VELOSTATION,DUBBELZIJDIG,GROENZONE,Lambrechtshoekenlaan (2170),133-135,,MERKSEM,2170,VE_0000214,IN_GEBRUIK,36
494289.351746383,6665059.39111817,225441,VELOSTATION,ENKELZIJDIG,VOETPAD,Nieuwdreef (2170),107,,MERKSEM,2170,VE_0000215,IN_GEBRUIK,36
495251.985376785,6665147.87822163,225442,VELOSTATION,DUBBELZIJDIG,PLEIN,Van Heybeeckstraat (2170),28,to 28,MERKSEM,2170,VE_0000216,IN_GEBRUIK,30
495904.465990076,6665473.45846126,225443,VELOSTATION,ENKELZIJDIG,GROENZONE,Bredabaan (2170),768,to 768,MERKSEM,2170,VE_0000217,IN_GEBRUIK,36
493789.568833641,6664396.1610795,225444,VELOSTATION,DUBBELZIJDIG,PLEIN,Ullenshofstraat (2170),3,to 3,MERKSEM,2170,VE_0000218,IN_GEBRUIK,36
494536.02017575,6664245.684355,225445,VELOSTATION,DUBBELZIJDIG,VOETPAD,Borrewaterstraat (2170),8,,MERKSEM,2170,VE_0000219,IN_GEBRUIK,33
495076.79582856,6664410.20974238,225446,VELOSTATION,DUBBELZIJDIG,PLEIN,Sint-Bartholomeusstraat (2170),122,,MERKSEM,2170,VE_0000220,IN_GEBRUIK,30
491349.04153394,6662673.34266577,225447,VELOSTATION,DUBBELZIJDIG,VOETPAD,Binnenvaartstraat (2000),,to Cadixstraat,ANTWERPEN,2000,VE_0000222,IN_GEBRUIK,36
490148.628192759,6662678.09578179,225448,VELOSTATION,DUBBELZIJDIG,VOETPAD,Rijnkaai (2000),15,,ANTWERPEN,2000,VE_0000223,IN_GEBRUIK,36
490899.204724798,6662887.96572794,225449,VELOSTATION,DUBBELZIJDIG,VOETPAD,Indiëstraat (2000),3,,ANTWERPEN,2030,VE_0000224,IN_GEBRUIK,36
490659.040656913,6662182.32471423,225450,VELOSTATION,DUBBELZIJDIG,VOETPAD,Verbindingsdok-Oostkaai (2000),9,to 9,ANTWERPEN,2000,VE_0000225,IN_GEBRUIK,36
493124.228884445,6662784.77879658,225451,VELOSTATION,DUBBELZIJDIG,GROENZONE,Noordschippersdok (2060),,terug naar Ijzerlaan,ANTWERPEN,2060,VE_0000226,IN_GEBRUIK,36
494758.139327026,6662585.85596014,225452,VELOSTATION,ENKELZIJDIG,PLEIN,Van Cortbeemdelei (2100),113,to 113 oh plein,DEURNE,2100,VE_0000227,IN_GEBRUIK,24
495513.026420906,6662042.25982279,225453,VELOSTATION,ENKELZIJDIG,PLEIN,Van Deynsestraat (2100),120,to 120,DEURNE,2100,VE_0000228,IN_GEBRUIK,24
495588.879776106,6661419.15782394,225454,VELOSTATION,DUBBELZIJDIG,GROENZONE,Jozef Nellenslei (2100),26,,DEURNE,2100,VE_0000229,IN_GEBRUIK,36
496705.46635179,6661931.98478488,225455,VELOSTATION,DUBBELZIJDIG,PLEIN,Sint-Fredegandusstraat (2100),80,,DEURNE,2100,VE_0000230,IN_GEBRUIK,36
497356.349661127,6661954.17036124,225456,VELOSTATION,DUBBELZIJDIG,GROENZONE,Gallifortlei (2100),278,,DEURNE,2100,VE_0000231,IN_GEBRUIK,36
498551.55382837,6661810.71996488,225457,VELOSTATION,DUBBELZIJDIG,PLEIN,Wim Saerensplein (2100),25,,DEURNE,2100,VE_0000232,IN_GEBRUIK,36
497160.887428718,6661210.26082443,225458,VELOSTATION,DUBBELZIJDIG,VOETPAD,Gallifortlei (2100),198,,DEURNE,2100,VE_0000233,IN_GEBRUIK,36
496616.76429391,6660693.17641467,225459,VELOSTATION,ENKELZIJDIG,VOETPAD,Jan Brochovenstraat (2100),28,,DEURNE,2100,VE_0000234,IN_GEBRUIK,36
495913.457180658,6660274.89069053,225460,VELOSTATION,DUBBELZIJDIG,PLEIN,Cogelsplein (2100),19-21,,DEURNE,2100,VE_0000235,IN_GEBRUIK,36
496485.595417888,6660154.70012184,225461,VELOSTATION,DUBBELZIJDIG,PLEIN,Maurice Dequeeckerplein (2100),3,to 3,DEURNE,2100,VE_0000236,IN_GEBRUIK,36
497508.75765334,6660386.42138786,225462,VELOSTATION,DUBBELZIJDIG,GROENZONE,Ter Rivierenlaan (2100),18,,DEURNE,2100,VE_0000237,IN_GEBRUIK,36
498227.044379628,6660966.64393547,225463,VELOSTATION,ENKELZIJDIG,VOETPAD,Ertbruggelaan (2100),2,,DEURNE,2100,VE_0000238,IN_GEBRUIK,24
498666.210497075,6660519.75490848,225464,VELOSTATION,ENKELZIJDIG,VOETPAD,Ruggeveldlaan (2100),549,,DEURNE,2100,VE_0000239,IN_GEBRUIK,30
498952.412666657,6659825.34161938,225465,VELOSTATION,DUBBELZIJDIG,VOETGANGERSZONE,Ruggeveldlaan (2100),,,DEURNE,2100,VE_0000240,IN_GEBRUIK,36
495754.78478984,6659146.18241966,225466,VELOSTATION,DUBBELZIJDIG,GROENZONE,Collegelaan (2140),42-44,to 42-44,BORGERHOUT,2140,VE_0000241,IN_GEBRUIK,36
495666.401106214,6658576.20776173,225467,VELOSTATION,DUBBELZIJDIG,GROENZONE,Luitenant Lippenslaan (2140),2,to 2,BORGERHOUT,2140,VE_0000242,IN_GEBRUIK,36
496284.712054889,6658454.73495171,225468,VELOSTATION,DUBBELZIJDIG,GROENZONE,Herentalsebaan (2100),133,,DEURNE,2100,VE_0000243,IN_GEBRUIK,36
497076.76962485,6658131.00507401,225469,VELOSTATION,DUBBELZIJDIG,PARKEERZONE,Herentalsebaan (2100),299,,DEURNE,2100,VE_0000244,IN_GEBRUIK,36
497744.723376862,6657958.13459565,225470,VELOSTATION,ENKELZIJDIG,GROENZONE,Florent Pauwelslei (2100),1,to 18,DEURNE,2100,VE_0000245,IN_GEBRUIK,36
496304.370726381,6658006.15034922,225471,VELOSTATION,DUBBELZIJDIG,GROENZONE,Arenaplein (2100),1,to 1,DEURNE,2100,VE_0000246,IN_GEBRUIK,36
494922.792663194,6658222.34086173,225472,VELOSTATION,ENKELZIJDIG,VOETPAD,Luitenant Lippenslaan (2140),55-59,,BORGERHOUT,2140,VE_0000247,IN_GEBRUIK,36
495281.486335716,6657802.00997234,225473,VELOSTATION,DUBBELZIJDIG,GROENZONE,Berchemlei (2140),67,to 67 thv De Schans,BORGERHOUT,2140,VE_0000248,IN_GEBRUIK,36
494728.682673087,6657421.03706507,225474,VELOSTATION,DUBBELZIJDIG,VOETPAD,Frans De Vriendtstraat (2140),61,to 61,BORGERHOUT,2140,VE_0000249,IN_GEBRUIK,30
494148.862508192,6656929.88355436,225475,VELOSTATION,DUBBELZIJDIG,VOETPAD,Diksmuidelaan (2600),8,hoek Herculusstraat,BERCHEM,2600,VE_0000250,IN_GEBRUIK,36
495594.209047334,6657449.09111199,225476,VELOSTATION,DUBBELZIJDIG,GROENZONE,Arthur Matthyslaan (2140),76,"to 76, to Thibautstraat",BORGERHOUT,2140,VE_0000251,IN_GEBRUIK,30
495399.867799838,6656771.03980184,225477,VELOSTATION,ENKELZIJDIG,VOETPAD,Karel De Preterlei (2140),222,to 222,BORGERHOUT,2140,VE_0000252,IN_GEBRUIK,33
495743.75937698,6656416.49982214,225478,VELOSTATION,ENKELZIJDIG,PLEIN,Vosstraat (2140),19,,BORGERHOUT,2140,VE_0000253,IN_GEBRUIK,36
496437.259254904,6656316.90984694,225479,VELOSTATION,DUBBELZIJDIG,MIDDENBERM,Boekenberglei (2100),189,,DEURNE,2100,VE_0000254,IN_GEBRUIK,30
497331.002688655,6657488.03082293,225480,VELOSTATION,ENKELZIJDIG,GROENZONE,Van den Hautelei (2100),90,to 90,DEURNE,2100,VE_0000255,IN_GEBRUIK,36
494506.072060683,6655940.36250799,225481,VELOSTATION,ENKELZIJDIG,VOETPAD,Helderstraat (2600),59,,BERCHEM,2600,VE_0000256,IN_GEBRUIK,36
495236.09417454,6655386.57582589,225482,VELOSTATION,ENKELZIJDIG,PARKEERZONE,Hofstadestraat (2600),,hoek Klerkenstraat,BERCHEM,2600,VE_0000257,IN_GEBRUIK,36
494694.330241634,6656310.74260234,225483,VELOSTATION,ENKELZIJDIG,GROENZONE,Lodewijk Van Berckenlaan (2140),127,to 127,BERCHEM,2600,VE_0000258,IN_GEBRUIK,30
493925.454251767,6655568.7079513,225484,VELOSTATION,DUBBELZIJDIG,GROENZONE,Posthofbrug (2600),,thv Arbeidersstraat,BERCHEM,2600,VE_0000259,IN_GEBRUIK,36
492218.63612834,6654921.86447929,225485,VELOSTATION,ENKELZIJDIG,GROENZONE,Hof ter Schriecklaan (2600),1,,BERCHEM,2600,VE_0000260,IN_GEBRUIK,27
493095.790886964,6654740.80294683,225486,VELOSTATION,DUBBELZIJDIG,GROENZONE,Henri Prostlaan (2600),5,eind vd keerlus,BERCHEM,2600,VE_0000261,IN_GEBRUIK,36
493758.174067815,6654849.61779601,225487,VELOSTATION,DUBBELZIJDIG,GROENZONE,Rooi (2600),,thv Achtersteveld,BERCHEM,2600,VE_0000262,IN_GEBRUIK,36
494354.23408717,6653986.4776338,225488,VELOSTATION,ENKELZIJDIG,MIDDENBERM,Fruithoflaan (2600),85,to 85 middenberm,BERCHEM,2600,VE_0000263,IN_GEBRUIK,36
493719.868364653,6654547.35115646,225489,VELOSTATION,DUBBELZIJDIG,PLEIN,Filip Williotstraat (2600),11,,BERCHEM,2600,VE_0000264,IN_GEBRUIK,36
493368.046547871,6654111.66169363,225490,VELOSTATION,DUBBELZIJDIG,VOETPAD,Pulhoflaan (2600),,thv Lappersbrug,BERCHEM,2600,VE_0000265,IN_GEBRUIK,36
493681.634153666,6653340.23602954,225491,VELOSTATION,ENKELZIJDIG,MIDDENBERM,Fruithoflaan (2600),3-5,to 3-5,BERCHEM,2600,VE_0000266,IN_GEBRUIK,36
492405.259144797,6654228.77186947,225492,VELOSTATION,DUBBELZIJDIG,GROENZONE,Prins Leopoldlaan (2600),36,to 36 od hoek,BERCHEM,2600,VE_0000267,IN_GEBRUIK,36
491863.385045299,6653736.99033341,225493,VELOSTATION,ENKELZIJDIG,VOETPAD,Lindendreef (2020),,,ANTWERPEN,2020,VE_0000268,IN_GEBRUIK,36
492519.580415863,6653745.55837138,225494,VELOSTATION,DUBBELZIJDIG,GROENZONE,Troyentenhoflaan (2600),120-122,,BERCHEM,2600,VE_0000269,IN_GEBRUIK,36
490262.196005534,6654329.5368609,225495,VELOSTATION,ENKELZIJDIG,GROENZONE,Eglantierlaan (2610),1,,ANTWERPEN,2020,VE_0000270,IN_GEBRUIK,36
490812.919559922,6653329.67646808,225496,VELOSTATION,DUBBELZIJDIG,GROENZONE,Beukenlaan (2020),24,to 24 hoek Middelheimlaan,ANTWERPEN,2020,VE_0000271,IN_GEBRUIK,36
492215.515728898,6652808.25119271,225497,VELOSTATION,ENKELZIJDIG,MIDDENBERM,Groenenborgerlaan (2020),199,,ANTWERPEN,2020,VE_0000272,IN_GEBRUIK,36
491251.324512811,6652448.69850372,225498,VELOSTATION,ENKELZIJDIG,GROENZONE,Oosterveldlaan (2610),8,to 8,WILRIJK,2610,VE_0000273,IN_GEBRUIK,36
489216.659223289,6651501.29129851,225499,VELOSTATION,DUBBELZIJDIG,PLEIN,Bist (2610),,,WILRIJK,2610,VE_0000274,IN_GEBRUIK,30
490172.365527316,6652199.27798899,225500,VELOSTATION,DUBBELZIJDIG,VOETPAD,Groenenborgerlaan (2610),17,,WILRIJK,2610,VE_0000275,IN_GEBRUIK,36
489142.591615025,6653828.59572722,225501,VELOSTATION,DUBBELZIJDIG,PLEIN,Kruishofstraat (2610),140,to 140,WILRIJK,2610,VE_0000276,IN_GEBRUIK,36
489781.127762404,6652673.3572075,225502,VELOSTATION,ENKELZIJDIG,VOETPAD,Ahornenlaan (2020),1,,WILRIJK,2610,VE_0000277,IN_GEBRUIK,36
489127.512828337,6650598.42362623,225503,VELOSTATION,DUBBELZIJDIG,GROENZONE,Oversneslaan (2610),54,,WILRIJK,2610,VE_0000278,IN_GEBRUIK,36
489191.555176206,6651094.17925741,225504,VELOSTATION,DUBBELZIJDIG,PLEIN,Doornstraat (2610),2,naast 2,WILRIJK,2610,VE_0000279,IN_GEBRUIK,36
487846.074950827,6652612.50132708,225505,VELOSTATION,DUBBELZIJDIG,GROENZONE,Bosheidelaan (2610),,hoek Rooiboslaan,WILRIJK,2610,VE_0000280,IN_GEBRUIK,36
488176.546169691,6653632.6611379,225506,VELOSTATION,DUBBELZIJDIG,GROENZONE,Hof Van Tichelen (2020),30,naast 30,ANTWERPEN,2020,VE_0000281,IN_GEBRUIK,36
487695.060668943,6653244.94198346,225507,VELOSTATION,DUBBELZIJDIG,VOETPAD,Letterkundestraat (2610),59-63,basis school de letter,WILRIJK,2610,VE_0000282,IN_GEBRUIK,36
486682.978010786,6653493.79327587,225508,VELOSTATION,DUBBELZIJDIG,PLEIN,Hollebeekstraat (2660),25-27,to 25-27,HOBOKEN,2660,VE_0000283,IN_GEBRUIK,36
485819.486004466,6653778.05683463,225509,VELOSTATION,DUBBELZIJDIG,VOETPAD,Steynstraat (2660),297-299,,HOBOKEN,2660,VE_0000284,IN_GEBRUIK,36
484046.29707318,6653655.20306228,225510,VELOSTATION,ENKELZIJDIG,PLEIN,Berkenrodelei (2660),150,naast 150,HOBOKEN,2660,VE_0000286,IN_GEBRUIK,36
484246.939533063,6652800.89224595,225511,VELOSTATION,DUBBELZIJDIG,VOETPAD,Berkenrodelei (2660),2,,HOBOKEN,2660,VE_0000287,IN_GEBRUIK,36
485334.036428656,6652716.03057125,225512,VELOSTATION,DUBBELZIJDIG,GROENZONE,Draaiboomstraat (2660),44,to 44,HOBOKEN,2660,VE_0000288,IN_GEBRUIK,36
484480.723731813,6652045.51041839,225513,VELOSTATION,DUBBELZIJDIG,VOETPAD,Walstraat (2660),5-7,to 5-7,HOBOKEN,2660,VE_0000289,IN_GEBRUIK,36
486220.485812019,6652526.66522417,225514,VELOSTATION,DUBBELZIJDIG,GROENZONE,Sint-Bernardsesteenweg (2660),886,to 886,HOBOKEN,2660,VE_0000290,IN_GEBRUIK,36
486764.01578548,6654715.15704447,225515,VELOSTATION,DUBBELZIJDIG,GROENZONE,Maurits Sabbelaan (2020),16-18,to 16-18,ANTWERPEN,2020,VE_0000291,IN_GEBRUIK,36
487689.018937107,6655104.11783399,225516,VELOSTATION,DUBBELZIJDIG,GROENZONE,Jacob le Mairestraat (2020),8,naast 8 aan keerlus,ANTWERPEN,2020,VE_0000292,IN_GEBRUIK,36
488794.789445525,6654695.18493291,225517,VELOSTATION,ENKELZIJDIG,PLEIN,Pol de Montstraat (2020),10,to 10 oh plein,ANTWERPEN,2020,VE_0000293,IN_GEBRUIK,36
487226.564856273,6655171.07002528,225518,VELOSTATION,ENKELZIJDIG,PLEIN,Valerius De Saedeleerstraat (2020),2,to 2,ANTWERPEN,2020,VE_0000294,IN_GEBRUIK,36
487504.922092835,6655735.35902006,225519,VELOSTATION,ENKELZIJDIG,GROENZONE,Emiel Vloorsstraat (2660),,hoek August Leysweg,ANTWERPEN,2020,VE_0000295,IN_GEBRUIK,36
489034.259705234,6655697.92980197,225520,VELOSTATION,DUBBELZIJDIG,GROENZONE,Eric Sasselaan (2020),69,to 69,ANTWERPEN,2020,VE_0000296,IN_GEBRUIK,36
488570.597500744,6655091.73624343,225521,VELOSTATION,DUBBELZIJDIG,GROENZONE,Jan De Voslei (2020),,thv C Huysmanslaan,ANTWERPEN,2020,VE_0000297,IN_GEBRUIK,36
487855.222367825,6651752.40940552,225522,VELOSTATION,ENKELZIJDIG,VOETPAD,Valkstraat (2610),,thv Gaston Fabrelaan,WILRIJK,2610,VE_0000298,IN_GEBRUIK,36
489589.271130821,6655319.32437388,225523,VELOSTATION,ENKELZIJDIG,GROENZONE,Camille Huysmanslaan (2020),,thv J V Rijswijcklaan,ANTWERPEN,2020,VE_0000299,IN_GEBRUIK,36
489505.765249971,6654856.73924645,225524,VELOSTATION,DUBBELZIJDIG,GROENZONE,Vogelzanglaan (2020),,thv voetbalveld,ANTWERPEN,2020,VE_0000300,IN_GEBRUIK,36
495415.964533225,6654735.91320501,225525,VELOSTATION,DUBBELZIJDIG,PLEIN,Luchthavenlei (2100),1,Op de parking van de luchthaven,DEURNE,2100,VE_0000301,IN_GEBRUIK,36
488742.934183147,6653035.77257795,225526,VELOSTATION,DUBBELZIJDIG,PLEIN,Rozenkransplein (2610),11,to 11 oh plein,WILRIJK,2610,VE_0000302,IN_GEBRUIK,36
484558.677141737,6653883.00441264,225527,VELOSTATION,ENKELZIJDIG,VOETPAD,Commandant Weynsstraat (2660),,,HOBOKEN,2660,VE_0000285,IN_GEBRUIK,36
490742.044113352,6663891.51119715,225528,VELOSTATION,ENKELZIJDIG,VOETPAD,Mexicostraat (2030),thv 37,nieuw havenhuis,ANTWERPEN,2030,VE_0000221,IN_GEBRUIK,36
490945.316199804,6663495.72482555,225529,VELOSTATION,ENKELZIJDIG,PARKEERZONE,Kambalastraat (2030),2,,ANTWERPEN,2030,VE_0000303,IN_GEBRUIK,36
493600.831373467,6663877.51942511,225530,VELOSTATION,DUBBELZIJDIG,GROENZONE,Campiniastraat (2170),50,,MERKSEM,2170,VE_0000304,IN_GEBRUIK,36
492652.906646047,6661373.87156074,225531,VELOSTATION,DUBBELZIJDIG,VOETGANGERSZONE,Van Kerckhovenstraat (2060),74,,ANTWERPEN,2060,VE_0000156,IN_GEBRUIK,36
492645.376063208,6657399.82229155,225532,VELOSTATION,DUBBELZIJDIG,PLEIN,Lange Leemstraat (2018),,,ANTWERPEN,2018,VE_0000161,IN_GEBRUIK,36
494654.936122267,6655194.78660107,225533,VELOSTATION,DUBBELZIJDIG,GROENZONE,Ter Nieuwerbrugge (2600),3,,BERCHEM,2600,VE_0000305,IN_GEBRUIK,36
482919.644000101,6651786.33677721,225534,VELOSTATION,DUBBELZIJDIG,GROENZONE,Baron Sadoinestraat (2660),26,,HOBOKEN,2660,VE_0000307,IN_GEBRUIK,36
486158.652263938,6651619.02595388,225535,VELOSTATION,ENKELZIJDIG,PLEIN,Majoor Maelfaitplein (2660),15,langsheen het plein,HOBOKEN,2660,VE_0000308,IN_GEBRUIK,36
484185.294959936,6651580.67754304,225536,VELOSTATION,DUBBELZIJDIG,GROENZONE,Paul Henri Spaaklaan (2660),2,,HOBOKEN,2660,VE_0000309,IN_GEBRUIK,36
484638.023593593,6650921.90626744,225537,VELOSTATION,DUBBELZIJDIG,PLEIN,Krijgsbaan (2660),20,,HOBOKEN,2660,VE_0000310,IN_GEBRUIK,36
483592.455070562,6652264.49608785,225538,VELOSTATION,ENKELZIJDIG,GROENZONE,Cockerillplaats (2660),12-14,to 12-14,HOBOKEN,2660,VE_0000311,IN_GEBRUIK,30
483390.77159057,6654046.28032175,225539,VELOSTATION,ENKELZIJDIG,GROENZONE,Graspolderlaan (2660),15-21,,HOBOKEN,2660,VE_0000312,IN_GEBRUIK,36
485726.17447197,6651261.82829328,225540,VELOSTATION,DUBBELZIJDIG,MIDDENBERM,Sint Bernaardsestwg,847,,HOBOKEN,2660,VE_0000314,IN_GEBRUIK,36
487079.778242212,6652134.82934784,225541,VELOSTATION,ENKELZIJDIG,GROENZONE,Den Brem (2610),91,,WILRIJK,2610,VE_0000320,IN_GEBRUIK,36
487345.049024321,6659853.22668523,225542,VELOSTATION,DUBBELZIJDIG,GROENZONE,Galgenweellaan (2050),70,,ANTWERPEN,2050,VE_0000163,IN_GEBRUIK,36
493478.188350746,6666006.58694362,225543,VELOSTATION,ENKELZIJDIG,GROENZONE,Ganzemate (2170),,,MERKSEM,2170,VE_0000317,IN_GEBRUIK,36
485142.516936296,6653512.68526003,225544,VELOSTATION,DUBBELZIJDIG,GROENZONE,Dokter Emiel Van Dammestraat (2660),28,,HOBOKEN,2660,VE_0000316,IN_GEBRUIK,36
487800.076876898,6650870.47834532,225545,VELOSTATION,ENKELZIJDIG,GROENZONE,Malisgoed (2610),7,,WILRIJK,2610,VE_0000322,IN_GEBRUIK,36
493167.469949161,6652323.27640219,225546,VELOSTATION,DUBBELZIJDIG,PLEIN,Monnikenplein (2610),1,,WILRIJK,2610,VE_0000321,IN_GEBRUIK,36
486309.851942247,6660292.33434425,225547,VELOSTATION,DUBBELZIJDIG,VOETPAD,Blancefloerlaan (2050),7272,,ANTWERPEN,2050,VE_0000162,IN_GEBRUIK,36
485348.633814608,6652297.09362896,225548,VELOSTATION,DUBBELZIJDIG,VOETPAD,Paul Vekemanslaan (2660),18,,HOBOKEN,2660,VE_0000325,IN_GEBRUIK,36
485739.350722466,6654523.53692075,225549,VELOSTATION,DUBBELZIJDIG,GROENZONE,Krugerbrug (2660),,,HOBOKEN,2660,VE_0000326,IN_GEBRUIK,36
487000.957687068,6652701.06221792,225550,VELOSTATION,DUBBELZIJDIG,PLEIN,Ridderveld (2610),7,,WILRIJK,2610,VE_0000327,IN_GEBRUIK,30
498172.296097443,6660148.77141247,225551,VELOSTATION,DUBBELZIJDIG,VOETPAD,Schotensesteenweg (2100),5,,DEURNE,2100,VE_0000328,IN_GEBRUIK,36
491912.393332597,6652358.88435062,225552,VELOSTATION,ENKELZIJDIG,GROENZONE,Oosterveldlaan (2610),24,,WILRIJK,2610,VE_0000323,IN_GEBRUIK,36
496621.124751806,6657509.43475431,225553,VELOSTATION,DUBBELZIJDIG,VOETPAD,Dordrechtlaan,2,,DEURNE,2100,VE_0000324,IN_GEBRUIK,24
497687.06462614,6661341.86879115,225554,VELOSTATION,ENKELZIJDIG,PLEIN,Prosper de Witstraat,5,,DEURNE,2100,VE_0000329,IN_GEBRUIK,27
484936.788679178,6651819.58814727,225555,VELOSTATION,ENKELZIJDIG,GROENZONE,Meerlenhoflaan (2660),32,ingang park,HOBOKEN,2660,VE_0000330,IN_GEBRUIK,36
482978.017959351,6652411.11053767,225556,VELOSTATION,DUBBELZIJDIG,GROENZONE,Zaatlaan (2660),6,,HOBOKEN,2660,VE_0000331,IN_GEBRUIK,36
488180.02580952,6650965.16268602,225557,VELOSTATION,DUBBELZIJDIG,GROENZONE,Michel Geysemansstraat (2610),10,,WILRIJK,2610,VE_0000332,IN_GEBRUIK,36
494456.862771235,6666428.84817039,225558,VELOSTATION,ENKELZIJDIG,GROENZONE,Frans Adriaenssensstraat (2170),123,joma basisschool,MERKSEM,2170,VE_0000333,IN_GEBRUIK,36
494752.091587248,6665327.28337564,225559,VELOSTATION,ENKELZIJDIG,PARKEERZONE,Speelpleinstraat (2170),,,MERKSEM,2170,VE_0000335,IN_GEBRUIK,36
490356.498357719,6651107.75769699,225560,VELOSTATION,DUBBELZIJDIG,PLEIN,Dokter Donnyplein (2610),1,,WILRIJK,2610,VE_0000340,IN_GEBRUIK,36
499037.530749229,6660269.11890437,225561,VELOSTATION,ENKELZIJDIG,GROENZONE,August Van de Wielelei (2100),136,,DEURNE,2100,VE_0000334,IN_GEBRUIK,36
489371.007236333,6652422.27807636,225562,VELOSTATION,DUBBELZIJDIG,PARKEERZONE,Sneeuwbeslaan (2610),,Hoek met Laarstraat,WILRIJK,2610,VE_0000336,IN_GEBRUIK,36
484614.056263694,6650323.35401152,225563,VELOSTATION,ENKELZIJDIG,VOETPAD,Verenigde Natieslaan (2660),168,,HOBOKEN,2660,VE_0000337,IN_GEBRUIK,36
482248.696714714,6652379.41452213,225564,VELOSTATION,DUBBELZIJDIG,VOETPAD,Leo Bosschartlaan (2660),,,HOBOKEN,2660,VE_0000339,BUITEN_GEBRUIK,36
497626.464945444,6656834.62977066,225565,VELOSTATION,,VOETPAD,Eksterlaar (2100),,,DEURNE,2100,VE_0000313,IN_GEBRUIK,36
497630.832628209,6656739.64176106,225566,VELOSTATION,,VOETPAD,Eksterlaar (2100),,,DEURNE,2100,VE_0000315,GEPLAND,36
490388.173770474,6651922.02195708,225567,VELOSTATION,DUBBELZIJDIG,GROENZONE,Schaliemolenstraat (2610),2,to 2 od groenzone,WILRIJK,2610,VE_0000319,IN_GEBRUIK,36
491620.84685461,6662368.14947027,225568,VELOSTATION,DUBBELZIJDIG,PARKEERZONE,Kempenstraat (2030),,,ANTWERPEN,2030,VE_0000341,IN_ONDERZOEK,36
487955.440849693,6657837.65366805,225569,VELOSTATION,DUBBELZIJDIG,VOETPAD,Jos Smolderenstraat (2000),,,ANTWERPEN,2000,VE_0000342,IN_GEBRUIK,36
491482.760018632,6662076.15911321,225570,VELOSTATION,DUBBELZIJDIG,GROENZONE,Ellermanstraat (2060),,,ANTWERPEN,2060,VE_0000164,IN_GEBRUIK,36
491287.593187865,6661829.16459869,225571,VELOSTATION,DUBBELZIJDIG,PLEIN,Italiëlei (2000),,,ANTWERPEN,2000,VE_0000167,IN_GEBRUIK,30
490128.385746428,6659994.67159867,225572,VELOSTATION,ENKELZIJDIG,VOETPAD,Schoenmarkt (2000),,,ANTWERPEN,2000,VE_0000166,IN_GEBRUIK,33
492113.711724512,6659920.37674633,225573,VELOSTATION,ENKELZIJDIG,PLEIN,Koningin Astridplein (2018),,,ANTWERPEN,2018,VE_0000171,IN_GEBRUIK,12
490820.008670888,6661215.06380978,225574,VELOSTATION,DUBBELZIJDIG,VOETPAD,Paardenmarkt (2000),43,,ANTWERPEN,2000,VE_0000165,IN_GEBRUIK,36
492104.404236354,6659921.166594,225575,VELOSTATION,ENKELZIJDIG,PLEIN,Koningin Astridplein (2018),,,ANTWERPEN,2018,VE_0000172,IN_GEBRUIK,12
494855.749916339,6660803.07524405,225576,VELOSTATION,DUBBELZIJDIG,PARKEERZONE,Noordersingel (2140),,"Spoor-Oost, ad fietsenstalling",BORGERHOUT,2140,VE_0000306,BUITEN_GEBRUIK,36
492032.101934565,6663053.10404056,225577,VELOSTATION,DUBBELZIJDIG,VOETGANGERSZONE,Asiadok-Oostkaai (2030),nvt,,ANTWERPEN,2030,VE_0000175,IN_GEBRUIK,36
491671.459473232,6660283.12916576,225578,VELOSTATION,ENKELZIJDIG,VOETGANGERSZONE,Franklin Rooseveltplaats (2060),nvt,,ANTWERPEN,2060,VE_0000173,IN_GEBRUIK,36
